From: horizons@ssd.jpl.nasa.gov (Horizons Ephemeris System)
Subject: [Horizons] SMALL BODY #C(500@10)_T(209P/LINEAR) (1/1)
Date: March 1, 2021 at 1:23:01 PM PST

Automated mail xmit by MAIL_REQUEST, PID= 2301 Mon Mar  1 13:23:01 2021
++++++++++++++++++++++++++++++++ (part 1 of 1)  +++++++++++++++++++++++++++++++
*******************************************************************************
JPL/HORIZONS                     209P/LINEAR               2021-Mar-01 13:23:01
Rec #:90001118 (+COV) Soln.date: 2019-Dec-03_20:30:50   # obs: 2794 (2003-2019)

IAU76/J2000 helio. ecliptic osc. elements (au, days, deg., period=Julian yrs):

 EPOCH=  2455947.5 ! 2012-Jan-21.0000000 (TDB)    RMSW= n.a.
  EC= .6920214125125672   QR= .9028409771273824   TP= 2456770.7245184425
  OM= 63.60831693350104   W= 152.1306549514883    IN= 20.61911890702222
  A= 2.931505675420449    MA= 198.3460721040277   ADIST= 4.960170373713515
  PER= 5.0193135151701    N= .19636675            ANGMOM= .021261309
  DAN= 3.93473            DDN= .9478              L= 217.2768249
  B= 9.4749736            MOID= .0576412          TP= 2014-Apr-23.2245184425

Comet physical (GM= km^3/s^2; RAD= km):
  GM= n.a.                RAD= n.a.
  M1=  16.9     M2=  n.a.     k1=  15.    k2= n.a.     PHCOF= n.a.

COMET comments 
1: soln ref.= JPL#138, data arc: 2003-12-03 to 2019-08-24
2: k1=15.; radar( 9 delay, 4 Dop.);
*******************************************************************************


*******************************************************************************
Ephemeris / MAIL_REQUEST Mon Mar  1 13:23:01 2021 Pasadena, USA  / Horizons
*******************************************************************************
Target body name: 209P/LINEAR                     {source: JPL#138}
Center body name: Sun (10)                        {source: DE431}
Center-site name: BODY CENTER
*******************************************************************************
Start time      : A.D. 1990-Jan-01 00:00:00.0000 TDB
Stop  time      : A.D. 2020-Dec-31 00:00:00.0000 TDB
Step-size       : 10080 minutes
*******************************************************************************
Center geodetic : 0.00000000,0.00000000,0.0000000 {E-lon(deg),Lat(deg),Alt(km)}
Center cylindric: 0.00000000,0.00000000,0.0000000 {E-lon(deg),Dxy(km),Dz(km)}
Center radii    : 696000.0 x 696000.0 x 696000.0 k{Equator, meridian, pole}    
Small perturbers: Yes                             {source: SB431-N16}
Output units    : AU-D
Output type     : GEOMETRIC cartesian states
Output format   : 6 (LT, range, and range-rate)
Reference frame : Ecliptic of J2000.0
*******************************************************************************
Initial IAU76/J2000 heliocentric ecliptic osculating elements (au, days, deg.):
 EPOCH=  2455947.5 ! 2012-Jan-21.0000000 (TDB)    RMSW= n.a.                  
  EC= .6920214125125672   QR= .9028409771273824   TP= 2456770.7245184425      
  OM= 63.60831693350104   W= 152.1306549514883    IN= 20.61911890702222       
 Equivalent ICRF heliocentric equatorial cartesian coordinates (au, au/d):
  X= 3.638937837351965E+00  Y= 3.249775572788649E+00  Z= 6.638212388896567E-01
 VX=-3.147116138988438E-03 VY= 1.842853013855272E-03 VZ= 2.440239324051989E-03
Comet physical (GM= km^3/s^2; RAD= km):                                        
  GM= n.a.                RAD= n.a.                                           
  M1=  16.9     M2=  n.a.     k1=  15.    k2= n.a.     PHCOF= n.a.            
*******************************************************************************
           JDTDB,            Calendar Date (TDB),                     LT,                     RG,                     RR,
**************************************************************************************************************************
$$SOE
2449292.500000000, A.D. 1993-Nov-01 00:00:00.0000,  1.135932718295312E-02,  1.966806532518931E+00, -9.106087089594764E-03,
2449299.500000000, A.D. 1993-Nov-08 00:00:00.0000,  1.098881666763978E-02,  1.902654625443061E+00, -9.221890802154414E-03,
2449306.500000000, A.D. 1993-Nov-15 00:00:00.0000,  1.061377851441195E-02,  1.837718782163602E+00, -9.329650383236573E-03,
2449313.500000000, A.D. 1993-Nov-22 00:00:00.0000,  1.023459325895120E-02,  1.772064890391362E+00, -9.426510122488980E-03,
2449320.500000000, A.D. 1993-Nov-29 00:00:00.0000,  9.851772618373276E-03,  1.705781551198380E+00, -9.508802005425610E-03,
2449327.500000000, A.D. 1993-Dec-06 00:00:00.0000,  9.465996893253925E-03,  1.638986554977951E+00, -9.571809326404253E-03,
2449334.500000000, A.D. 1993-Dec-13 00:00:00.0000,  9.078163305838780E-03,  1.571835250946223E+00, -9.609460202753321E-03,
2449341.500000000, A.D. 1993-Dec-20 00:00:00.0000,  8.689448337811717E-03,  1.504531340592198E+00, -9.613939416796275E-03,
2449348.500000000, A.D. 1993-Dec-27 00:00:00.0000,  8.301387605628256E-03,  1.437340707662996E+00, -9.575207754472875E-03,
2449355.500000000, A.D. 1994-Jan-03 00:00:00.0000,  7.915977054226453E-03,  1.370608939311754E+00, -9.480430088172809E-03,
2449362.500000000, A.D. 1994-Jan-10 00:00:00.0000,  7.535798658967511E-03,  1.304783090713963E+00, -9.313344229191006E-03,
2449369.500000000, A.D. 1994-Jan-17 00:00:00.0000,  7.164171381384666E-03,  1.240437822245153E+00, -9.053666710333969E-03,
2449376.500000000, A.D. 1994-Jan-24 00:00:00.0000,  6.805322037335816E-03,  1.178304984384423E+00, -8.676751984895481E-03,
2449383.500000000, A.D. 1994-Jan-31 00:00:00.0000,  6.464558236542371E-03,  1.119303561267364E+00, -8.153921415790261E-03,
2449390.500000000, A.D. 1994-Feb-07 00:00:00.0000,  6.148403327198126E-03,  1.064563035620797E+00, -7.454153763366222E-03,
2449397.500000000, A.D. 1994-Feb-14 00:00:00.0000,  5.864619843881070E-03,  1.015427448642849E+00, -6.548077195465416E-03,
2449404.500000000, A.D. 1994-Feb-21 00:00:00.0000,  5.622009821547608E-03,  9.734208254428324E-01, -5.415111536803560E-03,
2449411.500000000, A.D. 1994-Feb-28 00:00:00.0000,  5.429862253535949E-03,  9.401515053602049E-01, -4.053596980562326E-03,
2449418.500000000, A.D. 1994-Mar-07 00:00:00.0000,  5.296968656389657E-03,  9.171416922975516E-01, -2.491339167226723E-03,
2449425.500000000, A.D. 1994-Mar-14 00:00:00.0000,  5.230293859268381E-03,  9.055973090413587E-01, -7.910094711675632E-04,
2449432.500000000, A.D. 1994-Mar-21 00:00:00.0000,  5.233640375479408E-03,  9.061767403614557E-01,  9.557325521367665E-04,
2449439.500000000, A.D. 1994-Mar-28 00:00:00.0000,  5.306812041557049E-03,  9.188460216066308E-01,  2.646553772869674E-03,
2449446.500000000, A.D. 1994-Apr-04 00:00:00.0000,  5.445659018825240E-03,  9.428866304836602E-01,  4.191922989939001E-03,
2449453.500000000, A.D. 1994-Apr-11 00:00:00.0000,  5.642982466935330E-03,  9.770521264246966E-01,  5.532432087710409E-03,
2449460.500000000, A.D. 1994-Apr-18 00:00:00.0000,  5.889890325947066E-03,  1.019802896977667E+00,  6.643432442972570E-03,
2449467.500000000, A.D. 1994-Apr-25 00:00:00.0000,  6.177104315809003E-03,  1.069532457751214E+00,  7.528856499264041E-03,
2449474.500000000, A.D. 1994-May-02 00:00:00.0000,  6.495903632006260E-03,  1.124730848250987E+00,  8.210515604051311E-03,
2449481.500000000, A.D. 1994-May-09 00:00:00.0000,  6.838639116230338E-03,  1.184073657771394E+00,  8.718192167281529E-03,
2449488.500000000, A.D. 1994-May-16 00:00:00.0000,  7.198906157098958E-03,  1.246451962227226E+00,  9.082812507417659E-03,
2449495.500000000, A.D. 1994-May-23 00:00:00.0000,  7.571506391237492E-03,  1.310965692901479E+00,  9.332716721930354E-03,
2449502.500000000, A.D. 1994-May-30 00:00:00.0000,  7.952306622433632E-03,  1.376899209054200E+00,  9.492136247126781E-03,
2449509.500000000, A.D. 1994-Jun-06 00:00:00.0000,  8.338064820731631E-03,  1.443691170599584E+00,  9.580952717082838E-03,
2449516.500000000, A.D. 1994-Jun-13 00:00:00.0000,  8.726260637595518E-03,  1.510905192716158E+00,  9.615076489105603E-03,
2449523.500000000, A.D. 1994-Jun-20 00:00:00.0000,  9.114946745152515E-03,  1.578204106034695E+00,  9.607051240402968E-03,
2449530.500000000, A.D. 1994-Jun-27 00:00:00.0000,  9.502625547264347E-03,  1.645328609821937E+00,  9.566682359706553E-03,
2449537.500000000, A.D. 1994-Jul-04 00:00:00.0000,  9.888150165222773E-03,  1.712080128185226E+00,  9.501601004863486E-03,
2449544.500000000, A.D. 1994-Jul-11 00:00:00.0000,  1.027064639259228E-02,  1.778307296972403E+00,  9.417735759016319E-03,
2449551.500000000, A.D. 1994-Jul-18 00:00:00.0000,  1.064945182716172E-02,  1.843895424795934E+00,  9.319692047874079E-03,
2449558.500000000, A.D. 1994-Jul-25 00:00:00.0000,  1.102406866284201E-02,  1.908758319203384E+00,  9.211050806673884E-03,
2449565.500000000, A.D. 1994-Aug-01 00:00:00.0000,  1.139412716427969E-02,  1.972831962502792E+00,  9.094600567365699E-03,
2449572.500000000, A.D. 1994-Aug-08 00:00:00.0000,  1.175935738788380E-02,  2.036069615410255E+00,  8.972515151078513E-03,
2449579.500000000, A.D. 1994-Aug-15 00:00:00.0000,  1.211956719216999E-02,  2.098438009659048E+00,  8.846489632407575E-03,
2449586.500000000, A.D. 1994-Aug-22 00:00:00.0000,  1.247462514360337E-02,  2.159914388238048E+00,  8.717847996732735E-03,
2449593.500000000, A.D. 1994-Aug-29 00:00:00.0000,  1.282444726558697E-02,  2.220484211050223E+00,  8.587625773059547E-03,
2449600.500000000, A.D. 1994-Sep-05 00:00:00.0000,  1.316898668945572E-02,  2.280139363037771E+00,  8.456632217659599E-03,
2449607.500000000, A.D. 1994-Sep-12 00:00:00.0000,  1.350822552150115E-02,  2.338876746001116E+00,  8.325498547204026E-03,
2449614.500000000, A.D. 1994-Sep-19 00:00:00.0000,  1.384216843866589E-02,  2.396697169727768E+00,  8.194715647091797E-03,
2449621.500000000, A.D. 1994-Sep-26 00:00:00.0000,  1.417083763499135E-02,  2.453604476996878E+00,  8.064663525848699E-03,
2449628.500000000, A.D. 1994-Oct-03 00:00:00.0000,  1.449426882383250E-02,  2.509604851384172E+00,  7.935634364932647E-03,
2449635.500000000, A.D. 1994-Oct-10 00:00:00.0000,  1.481250806793480E-02,  2.564706268406792E+00,  7.807850643203687E-03,
